{
  "type": "FeatureCollection",
  "features": [
    {
      "type": "Feature",
      "properties": {
        "norad_id": 30912,
        "name": "FENGYUN 1C DEB",
        "group": "fengyun-1c-debris",
        "lat": -51.00045115682919,
        "lon": 12.42056529677789,
        "alt_km": 646.9538250071764,
        "timestamp": "2025-12-26T12:57:39.552207+00:00",
        "meta_object_name": "FENGYUN 1C DEB",
        "meta_object_id": "1999-025AZA",
        "meta_epoch": "2025-12-26T00:38:31.339104",
        "meta_mean_motion": 14.89700302,
        "meta_eccentricity": 0.00591107,
        "meta_inclination": 98.9956,
        "meta_ra_of_asc_node": 203.1187,
        "meta_arg_of_pericenter": 55.7648,
        "meta_mean_anomaly": 304.9146,
        "meta_ephemeris_type": 0,
        "meta_classification_type": "U",
        "meta_norad_cat_id": 30912,
        "meta_element_set_no": 999,
        "meta_rev_at_epoch": 99602,
        "meta_bstar": 0.0012689301,
        "meta_mean_motion_dot": 0.00012497,
        "meta_mean_motion_ddot": 0,
        "tle_line1": "1 30912U 99025AZA 25360.02675161  .00012497  00000+0  12689-2 0  9994",
        "tle_line2": "2 30912  98.9956 203.1187 0059110  55.7648 304.9146 14.89700302996023"
      },
      "geometry": {
        "type": "Point",
        "coordinates": [
          12.42056529677789,
          -51.00045115682919
        ]
      }
    },
    {
      "type": "Feature",
      "properties": {
        "norad_id": 30913,
        "name": "FENGYUN 1C DEB",
        "group": "fengyun-1c-debris",
        "lat": 17.451113688077733,
        "lon": -150.23883810227164,
        "alt_km": 843.4662383940649,
        "timestamp": "2025-12-26T12:57:39.552217+00:00",
        "meta_object_name": "FENGYUN 1C DEB",
        "meta_object_id": "1999-025AZB",
        "meta_epoch": "2025-12-25T00:18:04.196448",
        "meta_mean_motion": 14.04972109,
        "meta_eccentricity": 0.00488649,
        "meta_inclination": 98.7447,
        "meta_ra_of_asc_node": 25.5156,
        "meta_arg_of_pericenter": 147.4336,
        "meta_mean_anomaly": 212.9862,
        "meta_ephemeris_type": 0,
        "meta_classification_type": "U",
        "meta_norad_cat_id": 30913,
        "meta_element_set_no": 999,
        "meta_rev_at_epoch": 96090,
        "meta_bstar": 0.00074195676,
        "meta_mean_motion_dot": 1.165e-05,
        "meta_mean_motion_ddot": 0,
        "tle_line1": "1 30913U 99025AZB 25359.01254857  .00001165  00000+0  74196-3 0  9999",
        "tle_line2": "2 30913  98.7447  25.5156 0048864 147.4336 212.9862 14.04972109960900"
      },
      "geometry": {
        "type": "Point",
        "coordinates": [
          -150.23883810227164,
          17.451113688077733
        ]
      }
    },
    {
      "type": "Feature",
      "properties": {
        "norad_id": 30914,
        "name": "FENGYUN 1C DEB",
        "group": "fengyun-1c-debris",
        "lat": -50.80052419703602,
        "lon": -103.95380402758751,
        "alt_km": 852.8238057670878,
        "timestamp": "2025-12-26T12:57:39.552227+00:00",
        "meta_object_name": "FENGYUN 1C DEB",
        "meta_object_id": "1999-025AZC",
        "meta_epoch": "2025-12-23T09:59:19.017312",
        "meta_mean_motion": 13.08882678,
        "meta_eccentricity": 0.05169044,
        "meta_inclination": 99.9832,
        "meta_ra_of_asc_node": 240.6486,
        "meta_arg_of_pericenter": 330.1456,
        "meta_mean_anomaly": 27.1068,
        "meta_ephemeris_type": 0,
        "meta_classification_type": "U",
        "meta_norad_cat_id": 30914,
        "meta_element_set_no": 999,
        "meta_rev_at_epoch": 59215,
        "meta_bstar": 0.0026040863,
        "meta_mean_motion_dot": 1.674e-05,
        "meta_mean_motion_ddot": 0,
        "tle_line1": "1 30914U 99025AZC 25357.41619233  .00001674  00000+0  26041-2 0  9995",
        "tle_line2": "2 30914  99.9832 240.6486 0516904 330.1456  27.1068 13.08882678592153"
      },
      "geometry": {
        "type": "Point",
        "coordinates": [
          -103.95380402758751,
          -50.80052419703602
        ]
      }
    },
    {
      "type": "Feature",
      "properties": {
        "norad_id": 30915,
        "name": "FENGYUN 1C DEB",
        "group": "fengyun-1c-debris",
        "lat": 31.32300376522877,
        "lon": 71.47557697328632,
        "alt_km": 811.1959305265691,
        "timestamp": "2025-12-26T12:57:39.552237+00:00",
        "meta_object_name": "FENGYUN 1C DEB",
        "meta_object_id": "1999-025AZD",
        "meta_epoch": "2025-12-25T21:38:48.520608",
        "meta_mean_motion": 14.25133348,
        "meta_eccentricity": 0.0053111,
        "meta_inclination": 98.9406,
        "meta_ra_of_asc_node": 76.3231,
        "meta_arg_of_pericenter": 131.4683,
        "meta_mean_anomaly": 229.1074,
        "meta_ephemeris_type": 0,
        "meta_classification_type": "U",
        "meta_norad_cat_id": 30915,
        "meta_element_set_no": 999,
        "meta_rev_at_epoch": 96700,
        "meta_bstar": 0.001527,
        "meta_mean_motion_dot": 3.592e-05,
        "meta_mean_motion_ddot": 0,
        "tle_line1": "1 30915U 99025AZD 25359.90195047  .00003592  00000+0  15270-2 0  9997",
        "tle_line2": "2 30915  98.9406  76.3231 0053111 131.4683 229.1074 14.25133348967006"
      },
      "geometry": {
        "type": "Point",
        "coordinates": [
          71.47557697328632,
          31.32300376522877
        ]
      }
    },
    {
      "type": "Feature",
      "properties": {
        "norad_id": 30916,
        "name": "FENGYUN 1C DEB",
        "group": "fengyun-1c-debris",
        "lat": -8.501685749997925,
        "lon": 62.221049640204576,
        "alt_km": 897.6932820900192,
        "timestamp": "2025-12-26T12:57:39.552247+00:00",
        "meta_object_name": "FENGYUN 1C DEB",
        "meta_object_id": "1999-025AZE",
        "meta_epoch": "2025-12-24T03:19:11.326656",
        "meta_mean_motion": 14.08841468,
        "meta_eccentricity": 0.00633965,
        "meta_inclination": 99.0015,
        "meta_ra_of_asc_node": 58.4657,
        "meta_arg_of_pericenter": 226.4081,
        "meta_mean_anomaly": 190.1574,
        "meta_ephemeris_type": 0,
        "meta_classification_type": "U",
        "meta_norad_cat_id": 30916,
        "meta_element_set_no": 999,
        "meta_rev_at_epoch": 96004,
        "meta_bstar": 0.0011422877,
        "meta_mean_motion_dot": 1.964e-05,
        "meta_mean_motion_ddot": 0,
        "tle_line1": "1 30916U 99025AZE 25358.13832554  .00001964  00000+0  11423-2 0  9990",
        "tle_line2": "2 30916  99.0015  58.4657 0063396 226.4081 190.1574 14.08841468960040"
      },
      "geometry": {
        "type": "Point",
        "coordinates": [
          62.221049640204576,
          -8.501685749997925
        ]
      }
    },
    {
      "type": "Feature",
      "properties": {
        "norad_id": 30918,
        "name": "FENGYUN 1C DEB",
        "group": "fengyun-1c-debris",
        "lat": -21.279210961503058,
        "lon": -71.71516869422817,
        "alt_km": 955.6868122589676,
        "timestamp": "2025-12-26T12:57:39.552269+00:00",
        "meta_object_name": "FENGYUN 1C DEB",
        "meta_object_id": "1999-025AZG",
        "meta_epoch": "2025-12-23T19:23:57.178752",
        "meta_mean_motion": 13.96854434,
        "meta_eccentricity": 0.01571218,
        "meta_inclination": 98.4166,
        "meta_ra_of_asc_node": 109.0886,
        "meta_arg_of_pericenter": 94.6413,
        "meta_mean_anomaly": 55.6962,
        "meta_ephemeris_type": 0,
        "meta_classification_type": "U",
        "meta_norad_cat_id": 30918,
        "meta_element_set_no": 999,
        "meta_rev_at_epoch": 95207,
        "meta_bstar": 0.00069575463,
        "meta_mean_motion_dot": 1.037e-05,
        "meta_mean_motion_ddot": 0,
        "tle_line1": "1 30918U 99025AZG 25357.80830068  .00001037  00000+0  69575-3 0  9996",
        "tle_line2": "2 30918  98.4166 109.0886 0157121  94.6413  55.6962 13.96854434952076"
      },
      "geometry": {
        "type": "Point",
        "coordinates": [
          -71.71516869422817,
          -21.279210961503058
        ]
      }
    },
    {
      "type": "Feature",
      "properties": {
        "norad_id": 30920,
        "name": "FENGYUN 1C DEB",
        "group": "fengyun-1c-debris",
        "lat": 9.535207313707495,
        "lon": 140.35591131573653,
        "alt_km": 785.8998023767399,
        "timestamp": "2025-12-26T12:57:39.552280+00:00",
        "meta_object_name": "FENGYUN 1C DEB",
        "meta_object_id": "1999-025AZJ",
        "meta_epoch": "2025-12-25T03:01:04.024128",
        "meta_mean_motion": 14.1677202,
        "meta_eccentricity": 0.0107912,
        "meta_inclination": 98.9178,
        "meta_ra_of_asc_node": 140.4497,
        "meta_arg_of_pericenter": 62.436,
        "meta_mean_anomaly": 298.7727,
        "meta_ephemeris_type": 0,
        "meta_classification_type": "U",
        "meta_norad_cat_id": 30920,
        "meta_element_set_no": 999,
        "meta_rev_at_epoch": 95269,
        "meta_bstar": 0.0028203,
        "meta_mean_motion_dot": 5.934e-05,
        "meta_mean_motion_ddot": 0,
        "tle_line1": "1 30920U 99025AZJ 25359.12574102  .00005934  00000+0  28203-2 0  9992",
        "tle_line2": "2 30920  98.9178 140.4497 0107912  62.4360 298.7727 14.16772020952691"
      },
      "geometry": {
        "type": "Point",
        "coordinates": [
          140.35591131573653,
          9.535207313707495
        ]
      }
    }
  ]
}